1 37673U 11024A   13319.60865662  .00000766  00000-0  12886-3 0  9997
2 37673 098.0122 324.8848 0001290 104.2791 040.2062 14.72346752130800
